[{"OBJECT_NAME":"LEMUR-2-JIN-LUEN","OBJECT_ID":"2018-014C","EPOCH":"2026-03-09T17:26:30.692832","MEAN_MOTION":15.79211945,"ECCENTRICITY":0.00034721,"INCLINATION":97.5433,"RA_OF_ASC_NODE":359.0029,"ARG_OF_PERICENTER":144.7507,"MEAN_ANOMALY":215.3989,"EPHEMERIS_TYPE":0,"CLASSIFICATION_TYPE":"U","NORAD_CAT_ID":43182,"ELEMENT_SET_NO":999,"REV_AT_EPOCH":44547,"BSTAR":0.0014690021,"MEAN_MOTION_DOT":0.00269889,"MEAN_MOTION_DDOT":0},{"OBJECT_NAME":"STARLINK-36848","OBJECT_ID":"2026-037E","EPOCH":"2026-03-09T22:00:01.999584","MEAN_MOTION":15.82003711,"ECCENTRICITY":0.00016981,"INCLINATION":42.9987,"RA_OF_ASC_NODE":197.1334,"ARG_OF_PERICENTER":275.0989,"MEAN_ANOMALY":232.2329,"EPHEMERIS_TYPE":0,"CLASSIFICATION_TYPE":"U","NORAD_CAT_ID":67936,"ELEMENT_SET_NO":999,"REV_AT_EPOCH":323,"BSTAR":0.00023820011,"MEAN_MOTION_DOT":0.00049884,"MEAN_MOTION_DDOT":0}]
